ORBCOMM FM33            
1 25983U 99065D   25221.16475323  .00000750  00000+0  28026-3 0  9991
2 25983  45.0283 107.0677 0009213 333.6038  26.4341 14.40086340343774
ORBCOMM FM36            
1 25984U 99065E   25221.19879719  .00001009  00000+0  37555-3 0  9997
2 25984  45.0379 199.6538 0003935 248.7016 111.3413 14.38220176342644
ORBCOMM FM35            
1 25985U 99065F   25221.21663321  .00000782  00000+0  30782-3 0  9993
2 25985  45.0382 205.0253 0006105 298.6638  61.3596 14.37182175342608
ORBCOMM FM34            
1 25986U 99065G   25221.04291335  .00000722  00000+0  28768-3 0  9992
2 25986  45.0376 206.3061 0005864 265.8383  94.1795 14.37194839342545
ORBCOMM FM38            
1 33060U 08031A   25221.29486026  .00001530  00000+0  22031-3 0  9992
2 33060  48.4411  62.1249 0005268 267.1618  92.8695 14.81486801922612
ORBCOMM FM41            
1 33061U 08031B   25221.06848700  .00001473  00000+0  21524-3 0  9991
2 33061  48.4444  71.1659 0004485 251.6370 243.0855 14.81065645922513
ORBCOMM FM29            
1 33062U 08031C   25221.32563203  .00001535  00000+0  22256-3 0  9995
2 33062  48.4395  77.6850 0006143 252.6541 278.2064 14.81173164922414
ORBCOMM FM39            
1 33063U 08031D   25221.10661343  .00001301  00000+0  19934-3 0  9996
2 33063  48.4406 103.5852 0006929 224.8654 135.1701 14.79706670922057
